STARLINK-2098           
1 47378U 21005AF  26068.08594952 -.00000362  00000+0 -98556-7 0  9993
2 47378  53.1592  16.9696 0001227  84.6552 275.4589 15.30199006283620
2025-313BD              
1 67299U 25313BD  26068.62968741  .00081010  00000+0  27634-2 0  9995
2 67299  97.3970 145.2850 0007287 333.4514  26.6352 15.30002360 10838
